CZ-12 R/B               
1 66421U 25258K   25335.01090784 -.00000093  00000+0  22801-4 0  9997
2 66421  49.9952 308.8426 0064564 207.2393 152.5136 14.42315054  3028
STARLINK-35617          
1 66422U 25259A   25334.91670139 -.02004397  00000+0 -31622-1 0  9997
2 66422  42.9988 116.5205 0001800 282.3013 128.2189 15.55772150  4373
STARLINK-35618          
1 66423U 25259B   25334.91670139 -.02006118  00000+0 -31650-1 0  9992
2 66423  42.9993 116.5156 0001841 281.1198 131.3169 15.55773352  4379
STARLINK-35588          
1 66424U 25259C   25334.91670139 -.02010172  00000+0 -31720-1 0  9996
2 66424  42.9991 116.5116 0001803 282.6304 131.7231 15.55775157  4376
STARLINK-35555          
1 66425U 25259D   25334.91670139 -.02005125  00000+0 -31634-1 0  9993
2 66425  42.9994 116.5049 0001791 283.3920 132.8795 15.55772445  4377
STARLINK-35589          
1 66426U 25259E   25334.91670139 -.02017706  00000+0 -31852-1 0  9994
2 66426  42.9988 116.5016 0001738 283.6182 134.5736 15.55776603  4373
STARLINK-35611          
1 66427U 25259F   25334.91670139 -.02008344  00000+0 -31688-1 0  9990
2 66427  42.9991 116.4960 0001820 284.1667 135.9360 15.55774754  4374
STARLINK-35610          
1 66428U 25259G   25334.91670139 -.02013405  00000+0 -31775-1 0  9992
2 66428  42.9993 116.4913 0001831 282.9803 139.0403 15.55776852  4379
STARLINK-35533          
1 66429U 25259H   25334.91670139 -.02012940  00000+0 -31769-1 0  9999
2 66429  42.9993 116.4851 0001806 286.6042 137.3364 15.55774697  4371
STARLINK-35470          
1 66430U 25259J   25334.91670139 -.02016138  00000+0 -31823-1 0  9995
2 66430  42.9992 116.4815 0001882 287.3634 138.4928 15.55776625  4372
STARLINK-35439          
1 66431U 25259K   25334.91670139 -.02010943  00000+0 -31733-1 0  9994
2 66431  42.9993 116.4754 0001847 286.6243 141.1468 15.55775542  4372
STARLINK-35446          
1 66432U 25259L   25334.91670139 -.02017927  00000+0 -31852-1 0  9996
2 66432  42.9989 116.4700 0001828 286.1961 143.4915 15.55778845  4371
