CCSDS_OMM_VERS = 2.0
CREATION_DATE  = 
ORIGINATOR     = 

OBJECT_NAME    = CZ-12 R/B
OBJECT_ID      = 2025-258K
CENTER_NAME    = EARTH
REF_FRAME      = TEME
TIME_SYSTEM    = UTC
MEAN_ELEMENT_THEORY = SGP/SGP4

EPOCH          = 2025-12-01T00:15:42.437376
MEAN_MOTION    = 14.42315054
ECCENTRICITY   = .00645649
INCLINATION    = 49.9952
RA_OF_ASC_NODE = 308.8426
ARG_OF_PERICENTER = 207.2393
MEAN_ANOMALY   = 152.5136

EPHEMERIS_TYPE = 0
CLASSIFICATION_TYPE = U
NORAD_CAT_ID   = 66421
ELEMENT_SET_NO = 999
REV_AT_EPOCH   = 302
BSTAR          = .22800767E-4
MEAN_MOTION_DOT = -.93E-6
MEAN_MOTION_DDOT = 0

CCSDS_OMM_VERS = 2.0
CREATION_DATE  = 
ORIGINATOR     = 

OBJECT_NAME    = STARLINK-35617
OBJECT_ID      = 2025-259A
CENTER_NAME    = EARTH
REF_FRAME      = TEME
TIME_SYSTEM    = UTC
MEAN_ELEMENT_THEORY = SGP/SGP4

EPOCH          = 2025-11-30T22:00:03.000096
MEAN_MOTION    = 15.55772150
ECCENTRICITY   = .00018004
INCLINATION    = 42.9988
RA_OF_ASC_NODE = 116.5205
ARG_OF_PERICENTER = 282.3013
MEAN_ANOMALY   = 128.2189

EPHEMERIS_TYPE = 0
CLASSIFICATION_TYPE = U
NORAD_CAT_ID   = 66422
ELEMENT_SET_NO = 999
REV_AT_EPOCH   = 437
BSTAR          = -.31621754E-1
MEAN_MOTION_DOT = -.2004397E-1
MEAN_MOTION_DDOT = 0

CCSDS_OMM_VERS = 2.0
CREATION_DATE  = 
ORIGINATOR     = 

OBJECT_NAME    = STARLINK-35618
OBJECT_ID      = 2025-259B
CENTER_NAME    = EARTH
REF_FRAME      = TEME
TIME_SYSTEM    = UTC
MEAN_ELEMENT_THEORY = SGP/SGP4

EPOCH          = 2025-11-30T22:00:03.000096
MEAN_MOTION    = 15.55773352
ECCENTRICITY   = .00018415
INCLINATION    = 42.9993
RA_OF_ASC_NODE = 116.5156
ARG_OF_PERICENTER = 281.1198
MEAN_ANOMALY   = 131.3169

EPHEMERIS_TYPE = 0
CLASSIFICATION_TYPE = U
NORAD_CAT_ID   = 66423
ELEMENT_SET_NO = 999
REV_AT_EPOCH   = 437
BSTAR          = -.316502E-1
MEAN_MOTION_DOT = -.2006118E-1
MEAN_MOTION_DDOT = 0

CCSDS_OMM_VERS = 2.0
CREATION_DATE  = 
ORIGINATOR     = 

OBJECT_NAME    = STARLINK-35588
OBJECT_ID      = 2025-259C
CENTER_NAME    = EARTH
REF_FRAME      = TEME
TIME_SYSTEM    = UTC
MEAN_ELEMENT_THEORY = SGP/SGP4

EPOCH          = 2025-11-30T22:00:03.000096
MEAN_MOTION    = 15.55775157
ECCENTRICITY   = .00018037
INCLINATION    = 42.9991
RA_OF_ASC_NODE = 116.5116
ARG_OF_PERICENTER = 282.6304
MEAN_ANOMALY   = 131.7231

EPHEMERIS_TYPE = 0
CLASSIFICATION_TYPE = U
NORAD_CAT_ID   = 66424
ELEMENT_SET_NO = 999
REV_AT_EPOCH   = 437
BSTAR          = -.31719941E-1
MEAN_MOTION_DOT = -.2010172E-1
MEAN_MOTION_DDOT = 0

CCSDS_OMM_VERS = 2.0
CREATION_DATE  = 
ORIGINATOR     = 

OBJECT_NAME    = STARLINK-35555
OBJECT_ID      = 2025-259D
CENTER_NAME    = EARTH
REF_FRAME      = TEME
TIME_SYSTEM    = UTC
MEAN_ELEMENT_THEORY = SGP/SGP4

EPOCH          = 2025-11-30T22:00:03.000096
MEAN_MOTION    = 15.55772445
ECCENTRICITY   = .00017915
INCLINATION    = 42.9994
RA_OF_ASC_NODE = 116.5049
ARG_OF_PERICENTER = 283.3920
MEAN_ANOMALY   = 132.8795

EPHEMERIS_TYPE = 0
CLASSIFICATION_TYPE = U
NORAD_CAT_ID   = 66425
ELEMENT_SET_NO = 999
REV_AT_EPOCH   = 437
BSTAR          = -.3163434E-1
MEAN_MOTION_DOT = -.2005125E-1
MEAN_MOTION_DDOT = 0

CCSDS_OMM_VERS = 2.0
CREATION_DATE  = 
ORIGINATOR     = 

OBJECT_NAME    = STARLINK-35589
OBJECT_ID      = 2025-259E
CENTER_NAME    = EARTH
REF_FRAME      = TEME
TIME_SYSTEM    = UTC
MEAN_ELEMENT_THEORY = SGP/SGP4

EPOCH          = 2025-11-30T22:00:03.000096
MEAN_MOTION    = 15.55776603
ECCENTRICITY   = .00017387
INCLINATION    = 42.9988
RA_OF_ASC_NODE = 116.5016
ARG_OF_PERICENTER = 283.6182
MEAN_ANOMALY   = 134.5736

EPHEMERIS_TYPE = 0
CLASSIFICATION_TYPE = U
NORAD_CAT_ID   = 66426
ELEMENT_SET_NO = 999
REV_AT_EPOCH   = 437
BSTAR          = -.31851838E-1
MEAN_MOTION_DOT = -.2017706E-1
MEAN_MOTION_DDOT = 0

CCSDS_OMM_VERS = 2.0
CREATION_DATE  = 
ORIGINATOR     = 

OBJECT_NAME    = STARLINK-35611
OBJECT_ID      = 2025-259F
CENTER_NAME    = EARTH
REF_FRAME      = TEME
TIME_SYSTEM    = UTC
MEAN_ELEMENT_THEORY = SGP/SGP4

EPOCH          = 2025-11-30T22:00:03.000096
MEAN_MOTION    = 15.55774754
ECCENTRICITY   = .00018205
INCLINATION    = 42.9991
RA_OF_ASC_NODE = 116.4960
ARG_OF_PERICENTER = 284.1667
MEAN_ANOMALY   = 135.9360

EPHEMERIS_TYPE = 0
CLASSIFICATION_TYPE = U
NORAD_CAT_ID   = 66427
ELEMENT_SET_NO = 999
REV_AT_EPOCH   = 437
BSTAR          = -.31688012E-1
MEAN_MOTION_DOT = -.2008344E-1
MEAN_MOTION_DDOT = 0

CCSDS_OMM_VERS = 2.0
CREATION_DATE  = 
ORIGINATOR     = 

OBJECT_NAME    = STARLINK-35610
OBJECT_ID      = 2025-259G
CENTER_NAME    = EARTH
REF_FRAME      = TEME
TIME_SYSTEM    = UTC
MEAN_ELEMENT_THEORY = SGP/SGP4

EPOCH          = 2025-11-30T22:00:03.000096
MEAN_MOTION    = 15.55776852
ECCENTRICITY   = .00018313
INCLINATION    = 42.9993
RA_OF_ASC_NODE = 116.4913
ARG_OF_PERICENTER = 282.9803
MEAN_ANOMALY   = 139.0403

EPHEMERIS_TYPE = 0
CLASSIFICATION_TYPE = U
NORAD_CAT_ID   = 66428
ELEMENT_SET_NO = 999
REV_AT_EPOCH   = 437
BSTAR          = -.31774623E-1
MEAN_MOTION_DOT = -.2013405E-1
MEAN_MOTION_DDOT = 0

CCSDS_OMM_VERS = 2.0
CREATION_DATE  = 
ORIGINATOR     = 

OBJECT_NAME    = STARLINK-35533
OBJECT_ID      = 2025-259H
CENTER_NAME    = EARTH
REF_FRAME      = TEME
TIME_SYSTEM    = UTC
MEAN_ELEMENT_THEORY = SGP/SGP4

EPOCH          = 2025-11-30T22:00:03.000096
MEAN_MOTION    = 15.55774697
ECCENTRICITY   = .00018061
INCLINATION    = 42.9993
RA_OF_ASC_NODE = 116.4851
ARG_OF_PERICENTER = 286.6042
MEAN_ANOMALY   = 137.3364

EPHEMERIS_TYPE = 0
CLASSIFICATION_TYPE = U
NORAD_CAT_ID   = 66429
ELEMENT_SET_NO = 999
REV_AT_EPOCH   = 437
BSTAR          = -.31769264E-1
MEAN_MOTION_DOT = -.201294E-1
MEAN_MOTION_DDOT = 0

CCSDS_OMM_VERS = 2.0
CREATION_DATE  = 
ORIGINATOR     = 

OBJECT_NAME    = STARLINK-35470
OBJECT_ID      = 2025-259J
CENTER_NAME    = EARTH
REF_FRAME      = TEME
TIME_SYSTEM    = UTC
MEAN_ELEMENT_THEORY = SGP/SGP4

EPOCH          = 2025-11-30T22:00:03.000096
MEAN_MOTION    = 15.55776625
ECCENTRICITY   = .00018829
INCLINATION    = 42.9992
RA_OF_ASC_NODE = 116.4815
ARG_OF_PERICENTER = 287.3634
MEAN_ANOMALY   = 138.4928

EPHEMERIS_TYPE = 0
CLASSIFICATION_TYPE = U
NORAD_CAT_ID   = 66430
ELEMENT_SET_NO = 999
REV_AT_EPOCH   = 437
BSTAR          = -.31822505E-1
MEAN_MOTION_DOT = -.2016138E-1
MEAN_MOTION_DDOT = 0

CCSDS_OMM_VERS = 2.0
CREATION_DATE  = 
ORIGINATOR     = 

OBJECT_NAME    = STARLINK-35439
OBJECT_ID      = 2025-259K
CENTER_NAME    = EARTH
REF_FRAME      = TEME
TIME_SYSTEM    = UTC
MEAN_ELEMENT_THEORY = SGP/SGP4

EPOCH          = 2025-11-30T22:00:03.000096
MEAN_MOTION    = 15.55775542
ECCENTRICITY   = .00018475
INCLINATION    = 42.9993
RA_OF_ASC_NODE = 116.4754
ARG_OF_PERICENTER = 286.6243
MEAN_ANOMALY   = 141.1468

EPHEMERIS_TYPE = 0
CLASSIFICATION_TYPE = U
NORAD_CAT_ID   = 66431
ELEMENT_SET_NO = 999
REV_AT_EPOCH   = 437
BSTAR          = -.31732574E-1
MEAN_MOTION_DOT = -.2010943E-1
MEAN_MOTION_DDOT = 0

CCSDS_OMM_VERS = 2.0
CREATION_DATE  = 
ORIGINATOR     = 

OBJECT_NAME    = STARLINK-35446
OBJECT_ID      = 2025-259L
CENTER_NAME    = EARTH
REF_FRAME      = TEME
TIME_SYSTEM    = UTC
MEAN_ELEMENT_THEORY = SGP/SGP4

EPOCH          = 2025-11-30T22:00:03.000096
MEAN_MOTION    = 15.55778845
ECCENTRICITY   = .00018289
INCLINATION    = 42.9989
RA_OF_ASC_NODE = 116.4700
ARG_OF_PERICENTER = 286.1961
MEAN_ANOMALY   = 143.4915

EPHEMERIS_TYPE = 0
CLASSIFICATION_TYPE = U
NORAD_CAT_ID   = 66432
ELEMENT_SET_NO = 999
REV_AT_EPOCH   = 437
BSTAR          = -.31852037E-1
MEAN_MOTION_DOT = -.2017927E-1
MEAN_MOTION_DDOT = 0

